STARLINK-4698           
1 53713U 22107P   22266.25001157  .00093805  00000+0  66667-3 0  9998
2 53713  53.2140 183.2723 0001348 121.7913 212.3878 15.73153162  2975
STARLINK-4688           
1 53714U 22107Q   22266.25001157 -.00019434  00000+0 -13412-3 0  9997
2 53714  53.2142 183.2711 0001212 116.6381 218.1189 15.73243775  2976
STARLINK-4686           
1 53715U 22107R   22265.91667824  .00023992  00000+0  17484-3 0  9994
2 53715  53.2141 184.9239 0001263 132.5612 110.8154 15.73203856  1301
STARLINK-4699           
1 53716U 22107S   22265.91667824  .00015674  00000+0  11596-3 0  9991
2 53716  53.2142 184.9229 0001420 124.0951 119.9641 15.73184741  1301
STARLINK-4702           
1 53717U 22107T   22266.25001157  .00211120  28062-4  58550-3 0  9999
2 53717  53.2120 181.7285 0007426 331.6663  33.9159 15.93382212  2982
STARLINK-4695           
1 53718U 22107U   22265.91667824  .00030179  00000+0  21888-3 0  9995
2 53718  53.2140 184.9217 0001237 131.1985 113.3695 15.73177421  1304
STARLINK-4644           
1 53719U 22107V   22265.91667824  .00112945  15818-4  35597-3 0  9998
2 53719  53.2123 183.5808 0007837 297.5864 240.2112 15.91191841  1308
STARLINK-4642           
1 53720U 22107W   22266.25001157  .00063862  00000+0  45611-3 0  9992
2 53720  53.2142 183.2772 0001280 118.8336 212.9395 15.73193565  2960
STARLINK-4707           
1 53721U 22107X   22265.91667824  .00022980  00000+0  16786-3 0  9991
2 53721  53.2142 184.9316 0001712 124.3021 115.5365 15.73177790  1300
STARLINK-4700           
1 53722U 22107Y   22265.91667824  .00025679  00000+0  18692-3 0  9998
2 53722  53.2141 184.9293 0001599 127.8242 113.2211 15.73187071  1308
STARLINK-4705           
1 53723U 22107Z   22266.25001157  .00061479  00000+0  43953-3 0  9994
2 53723  53.2141 183.2858 0001339 123.3436 204.2736 15.73185272  2963
STARLINK-4663           
1 53724U 22107AA  22266.25001157  .00061594  00000+0  44038-3 0  9998
2 53724  53.2140 183.2819 0001351 123.2585 206.1436 15.73183172  2963
STARLINK-4704           
1 53725U 22107AB  22266.25001157  .00201848  26572-4  56401-3 0  9991
2 53725  53.2117 181.7356 0007574 332.4970  29.6669 15.93251579  2989
STARLINK-4697           
1 53726U 22107AC  22265.91667824  .00030563  00000+0  22149-3 0  9992
2 53726  53.2140 184.9328 0001536 120.6465 118.6042 15.73189074  1305
STARLINK-4701           
1 53727U 22107AD  22265.91667824 -.00028505  00000+0 -19940-3 0  9993
2 53727  53.2142 184.9374 0001602 124.4867 112.4047 15.73195081  1303
STARLINK-4640           
1 53728U 22107AE  22266.25001157  .00042309  00000+0  30467-3 0  9996
2 53728  53.2142 183.2881 0001216 127.5241 198.8975 15.73175459  2968
STARLINK-4651           
1 53729U 22107AF  22265.91667824  .00032504  00000+0  23492-3 0  9994
2 53729  53.2140 184.9413 0001330 135.3826  99.6504 15.73219455  1307
STARLINK-4641           
1 53730U 22107AG  22265.91667824  .00017030  00000+0  12556-3 0  9992
2 53730  53.2140 184.9390 0001356 130.7367 105.5176 15.73190823  1309
STARLINK-4636           
1 53731U 22107AH  22265.91667824  .00023305  00000+0  16999-3 0  9990
2 53731  53.2142 184.9438 0001385 127.3038 106.5703 15.73202356  1306
STARLINK-4661           
1 53732U 22107AJ  22265.91667824  .00015427  00000+0  11413-3 0  9993
2 53732  53.2141 184.9404 0001540 124.0568 111.5690 15.73200652  1302
STARLINK-4574           
1 53733U 22107AK  22266.25001157  .00083358  00000+0  59366-3 0  9990
2 53733  53.2167 183.2983 0000909 106.6735 214.9876 15.73153138  2968
STARLINK-4616           
1 53734U 22107AL  22266.25001157  .00024013  00000+0  17510-3 0  9999
2 53734  53.2164 183.2945 0001508 115.1564 208.2760 15.73189127  2960
STARLINK-4618           
1 53735U 22107AM  22265.91667824  .00028288  00000+0  20523-3 0  9997
2 53735  53.2140 184.9486 0001705 126.6198 104.8796 15.73206435  1301
STARLINK-4652           
1 53736U 22107AN  22266.25001157  .00038054  00000+0  27454-3 0  9999
2 53736  53.2142 183.2969 0001282 114.9084 207.3292 15.73181825  2964
STARLINK-4646           
1 53737U 22107AP  22265.91667824  .00016290  00000+0  12034-3 0  9997
2 53737  53.2140 184.9500 0001465 127.9926 102.9205 15.73183264  1304
STARLINK-4662           
1 53738U 22107AQ  22266.25001157  .00057617  00000+0  41257-3 0  9994
2 53738  53.2144 183.2993 0001168 107.0083 214.0378 15.73174946  2966
STARLINK-4613           
1 53739U 22107AR  22266.05917626  .00187245  24480-4  51407-3 0  9992
2 53739  53.2117 182.6791 0007393 329.8618  30.1985 15.93611830  2871
STARLINK-4607           
1 53740U 22107AS  22265.91667824  .00025819  00000+0  18770-3 0  9991
2 53740  53.2141 184.9511 0001728 126.6842 103.5625 15.73213806  1305
STARLINK-4614           
1 53741U 22107AT  22266.25001157  .00046649  00000+0  33534-3 0  9990
2 53741  53.2164 183.3070 0001230 103.7142 213.7672 15.73172841  2963
STARLINK-4637           
1 53742U 22107AU  22265.91667824  .00025744  00000+0  18721-3 0  9996
2 53742  53.2144 184.9525 0001745 128.5888 101.0896 15.73208291  1300
STARLINK-4645           
1 53743U 22107AV  22265.91667824  .00029264  00000+0  21228-3 0  9994
2 53743  53.2141 184.9573 0001379 134.9651  92.3683 15.73190407  1308
STARLINK-4670           
1 53744U 22107AW  22265.91667824  .00023196  00000+0  16921-3 0  9997
2 53744  53.2142 184.9537 0001404 115.3547 113.7425 15.73202548  1308
STARLINK-4656           
1 53745U 22107AX  22265.91667824  .00028521  00000+0  20686-3 0  9998
2 53745  53.2141 184.9586 0001252 137.2970  89.4394 15.73208764  1306
STARLINK-4589           
1 53746U 22107AY  22266.25001157  .00104728  00000+0  74329-3 0  9995
2 53746  53.2167 183.3080 0000984 125.7801 191.1202 15.73138770  2964
STARLINK-4657           
1 53747U 22107AZ  22266.25001157  .00459230  99732-4  97081-3 0  9992
2 53747  53.2111 181.4612 0006162 303.0022 191.1882 15.98241201  2981
STARLINK-4669           
1 53748U 22107BA  22266.25001157  .00033446  00000+0  24169-3 0  9992
2 53748  53.2142 183.3116 0001216 126.1490 188.9113 15.73207580  2968
STARLINK-4680           
1 53749U 22107BB  22266.25001157 -.00072656  00000+0 -51644-3 0  9999
2 53749  53.2159 183.3136 0001035 101.3506 213.1348 15.73258988  2960
STARLINK-4612           
1 53750U 22107BC  22266.25001157  .00027944  00000+0  20297-3 0  9999
2 53750  53.2164 183.3143 0001274 104.9868 208.9085 15.73187126  2966
FALCON 9 DEB            
1 53751U 22107BD  22265.92426587  .00275546  40976-4  68087-3 0  9994
2 53751  53.2121 183.2544 0006444 318.0598  41.9938 15.95483319  2842
SHERPA-LTC2             
1 53752U 22107BE  22266.18821161  .00233356  32032-4  62374-3 0  9991
2 53752  53.2101 182.0614 0009085 340.1139  19.9534 15.94022711  2893
FALCON 9 DEB            
1 53753U 22107BF  22265.86728684  .00282807  42480-4  70757-3 0  9999
2 53753  53.2090 183.6121 0008606 315.7946  44.2396 15.95216230  2836
FALCON 9 DEB            
1 53754U 22107BG  22265.88690542  .00117394  16183-4  37182-3 0  9997
2 53754  53.2137 183.7481 0009338 330.0071  30.0421 15.91050815  2834
FALCON 9 DEB            
1 53755U 22107BH  22265.85407060  .00294256  45796-4  68198-3 0  9992
2 53755  53.2063 183.5210 0004903 306.8953  53.1628 15.96660581  2831
FALCON 9 DEB            
1 53756U 22107BJ  22266.16384156  .00311870  50372-4  70605-3 0  9992
2 53756  53.2079 181.8964 0006027 297.7804  62.2615 15.97063175  2898
CENTISPACE-1 S3         
1 53757U 22108A   22266.07789210 -.00000954  00000+0 -16534-3 0  9993
2 53757  53.5328 276.7815 0008944 328.4854  31.5527 14.58233406  2472
CENTISPACE-1 S4         
1 53758U 22108B   22266.22121221  .00000303  00000+0  10572-3 0  9995
2 53758  53.5300 276.2461 0008705 312.5090  47.5123 14.57718046  2494
KZ-1A R/B               
1 53759U 22108C   22266.27065101  .00408601  10025-4  62488-3 0  9994
2 53759  53.5640 266.8370 0356429 130.5044 232.7612 15.42601385  2631
YAOGAN-35 05A           
1 53760U 22109A   22266.08168784  .00010984  00000+0  45322-3 0  9995
2 53760  34.9925 279.2163 0006510  50.0620   4.0522 15.23249346  2587
YAOGAN-35 05B           
1 53761U 22109B   22266.17992751  .00009258  00000+0  38174-3 0  9994
2 53761  34.9977 278.5420 0005472  66.1945 188.6891 15.23306875  2553
CZ-2D DEB               
1 53762U 22109C   22266.20422476  .00016714  00000+0  67081-3 0  9995
2 53762  34.9990 278.3394 0008823  62.8969 343.7910 15.24096926  2560
YAOGAN-35 05C           
1 53763U 22109D   22266.18406550  .00006467  00000+0  26802-3 0  9998
2 53763  34.9985 278.5635 0005633  63.7212 195.6412 15.23209429  2555
CZ-2D R/B               
1 53764U 22109E   22265.50016711  .00028890  00000+0  11562-2 0  9990
2 53764  35.0004 282.8021 0008454  48.4160  79.2070 15.24107756  2450
EUTELSAT KONNECT VHTS   
1 53765U 22110A   22265.11826723 -.00000236  00000+0 -36740-1 0  9992
2 53765   3.1903 142.7411 7916596 178.9104 324.3178  1.14544836   179
ARIANE 5 R/B            
1 53766U 22110B   22265.61773909  .00000319  00000+0  11872-2 0  9995
2 53766   3.2608 147.8306 8155472 175.2473 206.3540  1.26378206   193
1998-067UE              
1 53767U 98067UE  22265.78094073  .00028341  00000+0  47113-3 0  9999
2 53767  51.6413 212.9366 0003019 333.0061  27.0771 15.51833138  2552
BEAVERCUBE              
1 53768U 98067UF  22266.10439644  .00031149  00000+0  51897-3 0  9998
2 53768  51.6411 211.3474 0001139   3.9978 356.1021 15.51722283  2614
CLICK-A                 
1 53769U 98067UG  22265.45899699  .00037615  00000+0  61975-3 0  9998
2 53769  51.6420 214.5371 0001144 335.6857  24.4079 15.51940705  2511
1998-067UH              
1 53770U 98067UH  22266.09930538  .00055375  00000+0  88609-3 0  9995
2 53770  51.6408 211.3125 0002254 319.8378  40.2445 15.52582044  2619
JAGSAT                  
1 53771U 98067UJ  22266.09847273  .00058792  00000+0  93562-3 0  9999
2 53771  51.6409 211.3067 0002376 323.4971  36.5856 15.52708645  2601
